CELESTIS-02             
1 25160U 98007D   22025.83833230 -.00000043  00000+0  38596-4 0  9991
2 25160 107.9807 339.6089 0063057 352.2537  75.6743 14.21591909242599
CELESTIS-03             
1 26034U 99070C   22026.42994845  .00007724  00000+0  42692-3 0  9992
2 26034  98.3095  18.8993 0009629 249.6143 110.4052 15.14182653199563
